ONEWEB-0210             
1 48787U 21045W   25114.15224982  .00000159  00000+0  38814-3 0  9993
2 48787  87.9084 342.6841 0001833  58.0811 302.0497 13.15548059189226
ONEWEB-0214             
1 48788U 21045X   25115.15049525  .00000142  00000+0  34405-3 0  9997
2 48788  87.9079 342.4748 0001810  66.5478 293.5843 13.15547659190443
ONEWEB-0221             
1 48789U 21045Y   25115.15683050  .00000150  00000+0  36450-3 0  9996
2 48789  87.9090 342.4992 0001569  74.6255 285.5049 13.15547487190552
ONEWEB-0213             
1 48790U 21045Z   25114.15699673  .00000212  00000+0  52872-3 0  9990
2 48790  87.9085 342.7068 0001580  72.6852 287.4451 13.15547383189347
ONEWEB-0212             
1 48791U 21045AA  25114.05794989  .00000030  00000+0  44561-4 0  9991
2 48791  87.9076 342.7145 0001719  82.8316 277.3009 13.15545905189329
ONEWEB-0227             
1 48792U 21045AB  25114.13322655  .00000003  00000+0 -24990-4 0  9993
2 48792  87.9094 342.7113 0001680  77.1019 283.0298 13.15547639189284
ONEWEB-0226             
1 48793U 21045AC  25114.05084481 -.00000020  00000+0 -85933-4 0  9991
2 48793  87.9085 342.7335 0001727  68.3360 291.7955 13.15548741189241
ONEWEB-0224             
1 48794U 21045AD  25114.62284690  .00000191  00000+0  47365-3 0  9992
2 48794  87.9090 342.6539 0000975 108.8882 251.2354 13.15547232189244
